[{"OBJECT_NAME":"MOMENTUS-X1","OBJECT_ID":"2019-038Y","EPOCH":"2026-03-09T16:00:06.565824","MEAN_MOTION":15.58924932,"ECCENTRICITY":0.00095577,"INCLINATION":97.6914,"RA_OF_ASC_NODE":105.4868,"ARG_OF_PERICENTER":31.7161,"MEAN_ANOMALY":328.4669,"EPHEMERIS_TYPE":0,"CLASSIFICATION_TYPE":"U","NORAD_CAT_ID":44408,"ELEMENT_SET_NO":999,"REV_AT_EPOCH":37101,"BSTAR":0.00045566756,"MEAN_MOTION_DOT":0.00035395,"MEAN_MOTION_DDOT":0},{"OBJECT_NAME":"STARLINK-6063","OBJECT_ID":"2023-078AW","EPOCH":"2026-03-09T22:35:23.207712","MEAN_MOTION":15.58730037,"ECCENTRICITY":0.00035775,"INCLINATION":70.0007,"RA_OF_ASC_NODE":295.002,"ARG_OF_PERICENTER":255.2165,"MEAN_ANOMALY":104.8629,"EPHEMERIS_TYPE":0,"CLASSIFICATION_TYPE":"U","NORAD_CAT_ID":56811,"ELEMENT_SET_NO":999,"REV_AT_EPOCH":15392,"BSTAR":0.00025546943,"MEAN_MOTION_DOT":0.00019616,"MEAN_MOTION_DDOT":0}]
